ONEWEB-0113             
1 48050U 21025J   21194.58335648 -.00266135  00000-0 -60031+0 0  9990
2 48050  87.9576 317.8764 0004902 239.4208 150.2050 13.28549801 17327
ONEWEB-0112             
1 48051U 21025K   21194.58335648  .00038875  00000-0  84869-1 0  9994
2 48051  87.9572 317.9554 0000970  75.5281   8.4372 13.28439909 17343
ONEWEB-0156             
1 48052U 21025L   21194.58335648 -.00013267  00000-0 -28819-1 0  9998
2 48052  87.9555 317.8780 0008210 264.6697 351.6151 13.29234569 17313
ONEWEB-0161             
1 48053U 21025M   21194.58335648 -.00013874  00000-0 -30345-1 0  9990
2 48053  87.9574 317.9742 0001366  67.5086 142.3565 13.28794305 17256
ONEWEB-0158             
1 48054U 21025N   21194.58335648 -.00012866  00000-0 -26917-1 0  9991
2 48054  87.9483 317.8179 0005519 277.5285 233.5008 13.31729541 17379
ONEWEB-0157             
1 48055U 21025P   21194.58335648  .00012978  00000-0  28475-1 0  9995
2 48055  87.9596 317.9256 0000403 211.2745 224.9618 13.28253490 17322
ONEWEB-0162             
1 48056U 21025Q   21194.58335648  .00000013  00000-0  00000+0 0  9995
2 48056  87.9720 317.7288 0006263 267.8643 180.1683 13.38743092 17260
ONEWEB-0155             
1 48057U 21025R   21194.58335648  .00000013  00000-0  00000+0 0  9996
2 48057  87.9578 317.9710 0007406 258.2907 256.1231 13.29333904 17430
ONEWEB-0149             
1 48058U 21025S   21194.58335648 -.00010789  00000-0 -23586-1 0  9996
2 48058  87.9548 317.9234 0001303 110.6827 300.6878 13.28823660 17244
ONEWEB-0148             
1 48059U 21025T   21194.58335648  .00054687  00000-0  11045+0 0  9995
2 48059  87.9416 317.8820 0000818 100.1406 271.7626 13.33470203 17343
ONEWEB-0160             
1 48060U 21025U   21194.50001157  .00000013  00000-0  00000+0 0  9997
2 48060  88.0304 317.7833 0003711 287.5367 229.7315 13.39921433 17280
ONEWEB-0163             
1 48061U 21025V   21194.58335648  .00000013  00000-0  00000+0 0  9991
2 48061  87.9559 317.8976 0008534 249.7725 317.7332 13.29472830 17419
ONEWEB-0159             
1 48062U 21025W   21194.58335648 -.00008394  00000-0 -18445-1 0  9998
2 48062  87.9567 317.8712 0001266 225.2137 127.6738 13.28486753 17346
ONEWEB-0164             
1 48063U 21025X   21194.58335648  .00000013  00000-0  00000+0 0  9993
2 48063  88.0089 317.7996 0007912 261.1407 238.0934 13.40811330 17324
ONEWEB-0167             
1 48064U 21025Y   21194.58335648  .00000013  00000-0  00000+0 0  9994
2 48064  88.0439 317.8299 0006236 274.2941  64.8417 13.41386105 17304
ONEWEB-0166             
1 48065U 21025Z   21194.25001157  .00047027  00000-0  10272+0 0  9992
2 48065  87.9599 318.0305 0007155 251.6167 133.5142 13.28338901 17340
ONEWEB-0151             
1 48066U 21025AA  21194.58335648 -.00019314  00000-0 -42378-1 0  9998
2 48066  87.9574 317.9078 0003118 224.3822 305.7082 13.28603869 17343
ONEWEB-0170             
1 48067U 21025AB  21194.58335648 -.00021857  00000-0 -47943-1 0  9997
2 48067  87.9559 317.8834 0003583 256.4557 242.3117 13.28636198 17293
ONEWEB-0168             
1 48068U 21025AC  21194.58335648  .00000014  00000-0  00000+0 0  9999
2 48068  87.8996 317.5515 0004544 277.6349  46.4907 13.43715261 17277
ONEWEB-0173             
1 48069U 21025AD  21194.58335648  .00000015  00000-0  00000+0 0  9991
2 48069  88.0426 317.7492 0003657 247.3624 208.3045 13.73674140 17487
ONEWEB-0171             
1 48070U 21025AE  21194.58335648 -.00024596  00000-0 -54073-1 0  9996
2 48070  87.9566 317.9120 0003288 273.9644 254.5411 13.28504389 17363
ONEWEB-0172             
1 48071U 21025AF  21194.58335648 -.00012945  00000-0 -45075-2 0  9995
2 48071  87.8419 316.5246 0004756 217.8387  79.7857 14.35643065 17642
ONEWEB-0174             
1 48072U 21025AG  21194.25001157 -.00544816  00000-0 -66338+0 0  9994
2 48072  88.0307 317.7390 0009336 231.2209 201.8067 13.68882872 17475
ONEWEB-0175             
1 48073U 21025AH  21194.25001157  .00047775  00000-0  10450+0 0  9999
2 48073  87.9562 318.0423 0001672  66.1697 197.5783 13.28250122 17186
ONEWEB-0177             
1 48074U 21025AJ  21194.58335648  .00000013  00000-0  00000+0 0  9995
2 48074  87.9571 317.9433 0008667 233.2429 299.0938 13.29309624 17427
ONEWEB-0178             
1 48075U 21025AK  21194.58335648 -.00008124  00000-0 -17778-1 0  9991
2 48075  87.9564 317.9772 0007392 235.5614  23.8615 13.28749519 17460
ONEWEB-0108             
1 48076U 21025AL  21194.58335648 -.00021161  00000-0 -45933-1 0  9992
2 48076  87.9545 317.9283 0005360 238.5069 259.6571 13.29326760 17399
ONEWEB-0169             
1 48077U 21025AM  21194.58335648 -.00011764  00000-0 -22758-1 0  9991
2 48077  87.9542 317.8270 0009210 261.9732 192.1928 13.36856919 17262
ONEWEB-0176             
1 48210U 21031A   21194.25001157 -.01073842  00000-0 -69460+0 0  9991
2 48210  87.6780 288.5407 0008448  29.4124 339.2159 14.06357095 12918
ONEWEB-0184             
1 48211U 21031B   21194.50001157 -.01122224  00000-0 -79753+0 0  9995
2 48211  87.6710 288.4566 0009254   3.4725  21.8487 14.01257267 11633
ONEWEB-0179             
1 48212U 21031C   21194.50001157 -.01132375  00000-0 -69782+0 0  9995
2 48212  87.7044 288.4936 0010971  29.8616 194.1784 14.08651990 11693
ONEWEB-0180             
1 48213U 21031D   21194.50001157 -.00014921  00000-0 -10608-1 0  9996
2 48213  87.6291 288.4557 0008636  18.0895 119.8170 13.97710424 11609
ONEWEB-0218             
1 48214U 21031E   21194.50001157 -.01163598  00000-0 -67093+0 0  9991
2 48214  87.7302 288.5095 0010473 351.4007 188.1715 14.12380353 11711
ONEWEB-0209             
1 48215U 21031F   21194.25001157 -.01116655  00000-0 -63405+0 0  9999
2 48215  87.7332 288.5467 0009018   7.8464 333.4551 14.13090502 11662
ONEWEB-0198             
1 48216U 21031G   21193.91667824 -.00756536  00000-0 -28252+0 0  9999
2 48216  87.7782 288.4722 0005658  21.5518 140.7727 14.34890043 11625
ONEWEB-0189             
1 48217U 21031H   21194.50001157 -.00015193  00000-0 -10868-1 0  9990
2 48217  87.6047 288.4573 0010808   6.8046  81.6307 13.97355911 11623
ONEWEB-0196             
1 48218U 21031J   21194.25001157  .00013872  00000-0  98400-2 0  9992
2 48218  87.6469 288.4524 0007977  23.9963 275.2717 13.97496397 11562
ONEWEB-0183             
1 48219U 21031K   21194.50001157 -.01148570  00000-0 -73489+0 0  9995
2 48219  87.7112 288.4610 0006943  27.8039 167.6861 14.06643427 11668
ONEWEB-0185             
1 48220U 21031L   21194.50001157 -.00013472  00000-0 -96102-2 0  9998
2 48220  87.5881 288.4573 0008233   8.2229 229.9927 13.97518339 11631
ONEWEB-0187             
1 48221U 21031M   21194.50001157 -.01038834  00000-0 -67321+0 0  9997
2 48221  87.7009 288.3966 0009887  25.8671 239.2430 14.06131169 11628
ONEWEB-0192             
1 48222U 21031N   21194.50001157 -.01076691  00000-0 -85489+0 0  9996
2 48222  87.5969 288.3581 0007583  15.0032 219.5379 13.94819539 11575
ONEWEB-0219             
1 48223U 21031P   21194.25001157 -.01129183  00000-0 -61369+0 0  9995
2 48223  87.7312 288.5783 0009848 347.4717  51.3283 14.15490472 11687
ONEWEB-0202             
1 48224U 21031Q   21193.91667824 -.01195046  00000-0 -68289+0 0  9996
2 48224  87.7236 288.6424 0011121   8.8966 150.7074 14.12954463  3491
ONEWEB-0204             
1 48225U 21031R   21194.25001157  .00015267  00000-0  10719-1 0  9996
2 48225  87.6513 288.5356 0007402  21.5008 357.0830 13.98068403 11616
ONEWEB-0205             
1 48226U 21031S   21194.50001157 -.00014660  00000-0 -88689-2 0  9995
2 48226  87.6414 288.4374 0012072   9.0952 148.3793 14.06658158 11626
ONEWEB-0206             
1 48227U 21031T   21194.25001157  .00012712  00000-0  89527-2 0  9994
2 48227  87.5792 288.4617 0008409  19.8261 167.3500 13.97897175 11558
ONEWEB-0182             
1 48228U 21031U   21194.25001157 -.01151631  00000-0 -52863+0 0  9992
2 48228  87.8002 288.5701 0007982  20.6192 142.9237 14.24540498 11706
ONEWEB-0186             
1 48229U 21031V   21194.50001157 -.01154016  00000-0 -62179+0 0  9992
2 48229  87.7553 288.4846 0007298 358.6970 126.0994 14.16037070 11716
ONEWEB-0181             
1 48230U 21031W   21194.50001157 -.00014879  00000-0 -10638-1 0  9990
2 48230  87.5749 288.5184 0009382  16.1713 300.3746 13.97389241 11604
ONEWEB-0188             
1 48231U 21031X   21194.50001157 -.00777503  00000-0 -65711+0 0  9991
2 48231  87.5731 288.3143 0007503  17.3523  46.7698 13.90692467 11566
ONEWEB-0220             
1 48232U 21031Y   21194.50001157 -.01148922  00000-0 -59605+0 0  9995
2 48232  87.7596 288.4750 0010205 352.8645 210.5840 14.18040529 11712
ONEWEB-0165             
1 48233U 21031Z   21194.50001157 -.01157767  00000-0 -66574+0 0  9996
2 48233  87.7309 288.4979 0010162  14.1857 269.6814 14.12514749 11690
ONEWEB-0199             
1 48234U 21031AA  21194.50001157 -.01173917  00000-0 -82921+0 0  9996
2 48234  87.6920 288.4663 0007276  20.4692 244.2226 14.01195633 11644
ONEWEB-0203             
1 48235U 21031AB  21194.25001157  .00013821  00000-0  98551-2 0  9992
2 48235  87.6101 288.5027 0011110  12.6866 281.2581 13.97186666 11576
ONEWEB-0197             
1 48236U 21031AC  21194.25001157 -.01062924  00000-0 -80732+0 0  9993
2 48236  87.6073 288.4386 0008606  29.2128 191.7084 13.97302658 11555
ONEWEB-0194             
1 48237U 21031AD  21194.25001157 -.01140614  00000-0 -66420+0 0  9995
2 48237  87.7262 288.5582 0008070  23.3318 169.5881 14.11789782 11650
ONEWEB-0193             
1 48238U 21031AE  21194.50001157 -.01042052  00000-0 -58399+0 0  9997
2 48238  87.6909 288.4380 0008059 357.5779 135.9080 14.14112255 11648
ONEWEB-0191             
1 48239U 21031AF  21194.50001157 -.01072735  00000-0 -86069+0 0  9994
2 48239  87.5836 288.3494 0009871  25.1518 154.8711 13.94198569 11576
ONEWEB-0195             
1 48240U 21031AG  21194.50001157 -.01083185  00000-0 -87514+0 0  9993
2 48240  87.5980 288.3498 0007343   7.2339  37.1355 13.93844284 11563
